{
  "norad_id": 49144,
  "name": "STARLINK-3100",
  "history": [
    {
      "epoch": "2026-04-15T16:28:30.302976Z",
      "apogee_km": 574.4845789778519,
      "perigee_km": 569.5430217587909,
      "latitude_deg": 2.8829647503275963e-05,
      "longitude_deg": 110.19008461915557,
      "height_km": 574.403770893067,
      "semi_major_axis_km": 6950.150800368321,
      "eccentricity": 0.0003555,
      "inclination_deg": 70.0007,
      "raan_deg": 201.1613,
      "arg_perigee_deg": 270.8828,
      "mean_anomaly_deg": 89.1924,
      "mean_motion_rev_day": 14.98343611
    },
    {
      "epoch": "2026-04-16T14:54:23.571360Z",
      "apogee_km": 574.4588359155041,
      "perigee_km": 569.6242917065183,
      "latitude_deg": 4.8156453449799076e-05,
      "longitude_deg": 130.4407143476135,
      "height_km": 574.4448815101907,
      "semi_major_axis_km": 6950.178563811011,
      "eccentricity": 0.0003478,
      "inclination_deg": 70.0009,
      "raan_deg": 198.8051,
      "arg_perigee_deg": 270.5844,
      "mean_anomaly_deg": 89.4917,
      "mean_motion_rev_day": 14.98334633
    },
    {
      "epoch": "2026-04-17T11:44:08.102688Z",
      "apogee_km": 574.5038219462976,
      "perigee_km": 569.5769801902288,
      "latitude_deg": 9.333299908496524e-06,
      "longitude_deg": 174.96153624502705,
      "height_km": 574.4975889895541,
      "semi_major_axis_km": 6950.177401068263,
      "eccentricity": 0.00035444,
      "inclination_deg": 70.0008,
      "raan_deg": 196.6169,
      "arg_perigee_deg": 269.322,
      "mean_anomaly_deg": 90.7533,
      "mean_motion_rev_day": 14.98335009
    },
    {
      "epoch": "2026-04-18T14:58:24.813120Z",
      "apogee_km": 574.514339273639,
      "perigee_km": 569.5824877042269,
      "latitude_deg": 2.0051983859300062e-05,
      "longitude_deg": 122.41219002152337,
      "height_km": 574.5733883448962,
      "semi_major_axis_km": 6950.185413488933,
      "eccentricity": 0.0003548,
      "inclination_deg": 70.0007,
      "raan_deg": 193.7558,
      "arg_perigee_deg": 267.7471,
      "mean_anomaly_deg": 92.3282,
      "mean_motion_rev_day": 14.98332418
    },
    {
      "epoch": "2026-04-19T13:24:17.724672Z",
      "apogee_km": 574.5877059865015,
      "perigee_km": 569.5182374211399,
      "latitude_deg": -1.1811796089762041e-05,
      "longitude_deg": 142.66448958386968,
      "height_km": 574.5031281771139,
      "semi_major_axis_km": 6950.18997170382,
      "eccentricity": 0.0003647,
      "inclination_deg": 70.0004,
      "raan_deg": 191.3998,
      "arg_perigee_deg": 269.5014,
      "mean_anomaly_deg": 90.5727,
      "mean_motion_rev_day": 14.98330944
    },
    {
      "epoch": "2026-04-20T11:50:10.939488Z",
      "apogee_km": 574.5888394353833,
      "perigee_km": 569.5314589777927,
      "latitude_deg": -1.7932321606770966e-05,
      "longitude_deg": 162.91473046461383,
      "height_km": 574.5374040147773,
      "semi_major_axis_km": 6950.197149206588,
      "eccentricity": 0.00036383,
      "inclination_deg": 70.0004,
      "raan_deg": 189.043,
      "arg_perigee_deg": 268.886,
      "mean_anomaly_deg": 91.1882,
      "mean_motion_rev_day": 14.98328623
    },
    {
      "epoch": "2026-04-21T13:28:19.691328Z",
      "apogee_km": 574.5931918934102,
      "perigee_km": 569.5126030783476,
      "latitude_deg": 6.883786571766812e-05,
      "longitude_deg": 134.63236984920616,
      "height_km": 574.5287035778314,
      "semi_major_axis_km": 6950.189897485879,
      "eccentricity": 0.0003655,
      "inclination_deg": 70.0004,
      "raan_deg": 186.3499,
      "arg_perigee_deg": 268.924,
      "mean_anomaly_deg": 91.1501,
      "mean_motion_rev_day": 14.98330968
    },
    {
      "epoch": "2026-04-22T11:54:12.569184Z",
      "apogee_km": 574.619716046439,
      "perigee_km": 569.4974219121004,
      "latitude_deg": 1.7403572451188702e-05,
      "longitude_deg": 154.8845014636011,
      "height_km": 574.5292818098513,
      "semi_major_axis_km": 6950.195568979269,
      "eccentricity": 0.0003685,
      "inclination_deg": 70.0003,
      "raan_deg": 183.9936,
      "arg_perigee_deg": 269.0472,
      "mean_anomaly_deg": 91.0265,
      "mean_motion_rev_day": 14.98329134
    },
    {
      "epoch": "2026-04-23T10:20:05.643168Z",
      "apogee_km": 574.5627364066158,
      "perigee_km": 569.5538696556268,
      "latitude_deg": -1.2857810246472972e-05,
      "longitude_deg": 175.13592166863404,
      "height_km": 574.5161003406794,
      "semi_major_axis_km": 6950.195303031121,
      "eccentricity": 0.00036034,
      "inclination_deg": 70.0005,
      "raan_deg": 181.6374,
      "arg_perigee_deg": 269.3198,
      "mean_anomaly_deg": 90.7548,
      "mean_motion_rev_day": 14.9832922
    },
    {
      "epoch": "2026-04-24T11:58:14.453760Z",
      "apogee_km": 574.574878050581,
      "perigee_km": 569.5276513327617,
      "latitude_deg": 7.682524755391755e-05,
      "longitude_deg": 146.8530177669783,
      "height_km": 574.5637346488153,
      "semi_major_axis_km": 6950.188264691671,
      "eccentricity": 0.0003631,
      "inclination_deg": 70.0001,
      "raan_deg": 178.944,
      "arg_perigee_deg": 268.0833,
      "mean_anomaly_deg": 91.9911,
      "mean_motion_rev_day": 14.98331496
    }
  ]
}